{"signature":{"source":"NASA/JPL Horizons API","version":"1.2"},"result":"*******************************************************************************
 Revised: April 12, 2021             Mercury                            199 / 1

 PHYSICAL DATA (updated 2024-Mar-04):
  Vol. Mean Radius (km) =  2439.4+-0.1    Density (g cm^-3)     = 5.427
  Mass x10^23 (kg)      =     3.302       Volume (x10^10 km^3)  = 6.085  
  Sidereal rot. period  =    58.6463 d    Sid. rot. rate (rad/s)= 0.00000124001
  Mean solar day        =   175.9421 d    Core radius (km)      = ~1600 
  Geometric Albedo      =     0.106       Surface emissivity    = 0.77+-0.06
  GM (km^3/s^2)         = 22031.86855     Equatorial radius, Re = 2440.53 km
  GM 1-sigma (km^3/s^2) =                 Mass ratio (Sun/plnt) = 6023682
  Mom. of Inertia       =     0.33        Equ. gravity  m/s^2   = 3.701     
  Atmos. pressure (bar) = < 5x10^-15      Max. angular diam.    = 11.0\"   
  Mean Temperature (K)  = 440             Visual mag. V(1,0)    = -0.42 
  Obliquity to orbit[1] =  2.11' +/- 0.1' Hill's sphere rad. Rp = 94.4 
  Sidereal orb. per.    =  0.2408467 y    Mean Orbit vel.  km/s = 47.362 
  Sidereal orb. per.    = 87.969257  d    Escape vel. km/s      =  4.435
                                 Perihelion  Aphelion    Mean
  Solar Constant (W/m^2)         14462       6278        9126
  Maximum Planetary IR (W/m^2)   12700       5500        8000
  Minimum Planetary IR (W/m^2)   6           6           6
*******************************************************************************


*******************************************************************************
Ephemeris / API_USER Sat Sep 20 12:30:18 2025 Pasadena, USA      / Horizons
*******************************************************************************
Target body name: Mercury (199)                   {source: DE441}
Center body name: Earth (399)                     {source: DE441}
Center-site name: BODY CENTER
*******************************************************************************
Start time      : A.D. 2025-Jan-01 00:00:00.0000 TDB
Stop  time      : A.D. 2026-Jan-01 00:00:00.0000 TDB
Step-size       : 60 minutes
*******************************************************************************
Center geodetic : 0.0, 0.0, 0.0                   {E-lon(deg),Lat(deg),Alt(km)}
Center cylindric: 0.0, 0.0, 0.0                   {E-lon(deg),Dxy(km),Dz(km)}
Center radii    : 6378.137, 6378.137, 6356.752 km {Equator_a, b, pole_c}
Output units    : KM-S
Calendar mode   : Mixed Julian/Gregorian
Output type     : GEOMETRIC cartesian states
Output format   : 3 (position, velocity, LT, range, range-rate)
EOP file        : eop.250919.p251216
EOP coverage    : DATA-BASED 1962-JAN-20 TO 2025-SEP-19. PREDICTS-> 2025-DEC-15
Reference frame : Ecliptic of J2000.0
*******************************************************************************
            JDTDB,            Calendar Date (TDB),                      X,                      Y,                      Z,                     VX,                     VY,                     VZ,                     LT,                     RG,                     RR,
**************************************************************************************************************************************************************************************************************************************************************************
$$SOE
2460900.500000000, A.D. 2025-Aug-13 00:00:00.0000, -6.286707362896936E+07,  9.300850101048511E+07, -5.247311259472329E+06, -2.431203101623293E+01,  2.799952826068608E+01,  4.673807747780726E+00,  3.748759528464845E+02,  1.123849833489397E+08,  3.655377569189853E+01,
2460900.541666667, A.D. 2025-Aug-13 01:00:00.0000, -6.295486201473674E+07,  9.310929737032342E+07, -5.230456825649239E+06, -2.445933646388091E+01,  2.799836222576002E+01,  4.689763326163725E+00,  3.753153983901485E+02,  1.125167258086319E+08,  3.663644095747149E+01,
2460900.583333333, A.D. 2025-Aug-13 02:00:00.0000, -6.304318115348945E+07,  9.321008858928162E+07, -5.213544987270337E+06, -2.460689356109707E+01,  2.799667183329517E+01,  4.705699115839018E+00,  3.757558352059131E+02,  1.126487654442236E+08,  3.671887321476617E+01,
2460900.625000000, A.D. 2025-Aug-13 03:00:00.0000, -6.313203194872853E+07,  9.331087277553613E+07, -5.196575816135835E+06, -2.475470095099456E+01,  2.799445478492098E+01,  4.721614804922037E+00,  3.761972604885664E+02,  1.127811014147336E+08,  3.680107126817872E+01,
2460900.666666667, A.D. 2025-Aug-13 04:00:00.0000, -6.322141529904007E+07,  9.341164802898550E+07, -5.179549385171853E+06, -2.490275725988671E+01,  2.799170878017497E+01,  4.737510079816509E+00,  3.766396714185288E+02,  1.129137328748731E+08,  3.688303392038195E+01,
2460900.708333333, A.D. 2025-Aug-13 05:00:00.0000, -6.331133209803450E+07,  9.351241244124289E+07, -5.162465768436491E+06, -2.505106109718741E+01,  2.798843151660038E+01,  4.753384625213076E+00,  3.770830651618330E+02,  1.130466589750401E+08,  3.696475997231164E+01,
2460900.750000000, A.D. 2025-Aug-13 06:00:00.0000, -6.340178323428550E+07,  9.361316409562927E+07, -5.145325041126080E+06, -2.519961105531148E+01,  2.798462068984530E+01,  4.769238124087973E+00,  3.775274388701017E+02,  1.131798788613125E+08,  3.704624822315353E+01,
2460900.791666667, A.D. 2025-Aug-13 07:00:00.0000, -6.349276959126879E+07,  9.371390106716666E+07, -5.128127279581301E+06, -2.534840570957525E+01,  2.798027399376313E+01,  4.785070257701836E+00,  3.779727896805277E+02,  1.133133916754425E+08,  3.712749747033054E+01,
2460900.833333333, A.D. 2025-Aug-13 08:00:00.0000, -6.358429204730025E+07,  9.381462142257184E+07, -5.110872561293419E+06, -2.549744361809739E+01,  2.797538912051443E+01,  4.800880705598665E+00,  3.784191147158525E+02,  1.134471965548494E+08,  3.720850650949072E+01,
2460900.875000000, A.D. 2025-Aug-13 09:00:00.0000, -6.367635147547387E+07,  9.391532322025047E+07, -5.093560964910388E+06, -2.564672332169964E+01,  2.796996376067011E+01,  4.816669145604857E+00,  3.788664110843437E+02,  1.135812926326139E+08,  3.728927413449525E+01,
2460900.916666667, A.D. 2025-Aug-13 10:00:00.0000, -6.376894874359939E+07,  9.401600451029170E+07, -5.076192570243131E+06, -2.579624334380797E+01,  2.796399560331616E+01,  4.832435253828436E+00,  3.793146758797757E+02,  1.137156790374713E+08,  3.736979913740740E+01,
2460900.958333333, A.D. 2025-Aug-13 11:00:00.0000, -6.386208471413932E+07,  9.411666333446266E+07, -5.058767458271619E+06, -2.594600219035375E+01,  2.795748233615964E+01,  4.848178704658405E+00,  3.797639061814059E+02,  1.138503548938051E+08,  3.745008030848157E+01,
2460901.000000000, A.D. 2025-Aug-13 12:00:00.0000, -6.395576024414597E+07,  9.421729772620405E+07, -5.041285711151194E+06, -2.609599834967524E+01,  2.795042164563613E+01,  4.863899170764167E+00,  3.802140990539540E+02,  1.139853193216403E+08,  3.753011643615300E+01,
2460901.041666667, A.D. 2025-Aug-13 13:00:00.0000, -6.404997618519780E+07,  9.431790571062557E+07, -5.023747412218597E+06, -2.624623029241915E+01,  2.794281121701877E+01,  4.879596323095186E+00,  3.806652515475799E+02,  1.141205714366373E+08,  3.760990630702805E+01,
2460901.083333333, A.D. 2025-Aug-13 14:00:00.0000, -6.414473338333564E+07,  9.441848530450197E+07, -5.006152645998288E+06, -2.639669647144261E+01,  2.793464873452841E+01,  4.895269830880714E+00,  3.811173606978618E+02,  1.142561103500846E+08,  3.768944870587477E+01,
2460901.125000000, A.D. 2025-Aug-13 15:00:00.0000, -6.424003267899842E+07,  9.451903451626949E+07, -4.988501498208627E+06, -2.654739532171522E+01,  2.792593188144557E+01,  4.910919361629668E+00,  3.815704235257737E+02,  1.143919351688927E+08,  3.776874241561421E+01,
2460901.166666667, A.D. 2025-Aug-13 16:00:00.0000, -6.433587490695859E+07,  9.461955134602265E+07, -4.970794055767991E+06, -2.669832526022150E+01,  2.791665834022358E+01,  4.926544581130697E+00,  3.820244370376637E+02,  1.145280449955874E+08,  3.784778621731216E+01,
2460901.208333333, A.D. 2025-Aug-13 17:00:00.0000, -6.443226089625730E+07,  9.472003378551143E+07, -4.953030406801023E+06, -2.684948468586346E+01,  2.790682579260334E+01,  4.942145153452353E+00,  3.824793982252310E+02,  1.146644389283028E+08,  3.792657889017138E+01,
2460901.250000000, A.D. 2025-Aug-13 18:00:00.0000, -6.452919147013897E+07,  9.482047981813911E+07, -4.935210640644863E+06, -2.700087197936358E+01,  2.789643191972948E+01,  4.957720740943405E+00,  3.829353040655043E+02,  1.148011160607749E+08,  3.800511921152451E+01,
2460901.291666667, A.D. 2025-Aug-13 19:00:00.0000, -6.462666744598582E+07,  9.492088741896001E+07, -4.917334847855210E+06, -2.715248550316810E+01,  2.788547440226803E+01,  4.973271004233347E+00,  3.833921515208185E+02,  1.149380754823346E+08,  3.808340595682746E+01,
2460901.333333333, A.D. 2025-Aug-13 20:00:00.0000, -6.472468963525178E+07,  9.502125455467831E+07, -4.899403120212656E+06, -2.730432360135056E+01,  2.787395092052562E+01,  4.988795602233033E+00,  3.838499375387930E+02,  1.150753162779012E+08,  3.816143789965327E+01,
2460901.375000000, A.D. 2025-Aug-13 21:00:00.0000, -6.482325884339627E+07,  9.512157918364674E+07, -4.881415550728779E+06, -2.745638459951567E+01,  2.786185915457008E+01,  5.004294192135447E+00,  3.843086590523077E+02,  1.152128375279753E+08,  3.823921381168682E+01,
2460901.416666667, A.D. 2025-Aug-13 22:00:00.0000, -6.492237586981747E+07,  9.522185925586608E+07, -4.863372233652353E+06, -2.760866680470369E+01,  2.784919678435256E+01,  5.019766429416668E+00,  3.847683129794820E+02,  1.153506383086322E+08,  3.831673246271981E+01,
2460901.458333333, A.D. 2025-Aug-13 23:00:00.0000, -6.502204150778536E+07,  9.532209271298492E+07, -4.845273264475551E+06, -2.776116850529497E+01,  2.783596148983135E+01,  5.035211967836986E+00,  3.852288962236508E+02,  1.154887176915152E+08,  3.839399262064654E+01,
